[
    {
        "OBJECT_NAME": "GPS BIIR-5  (PRN 22)",
        "OBJECT_ID": "2000-040A",
        "EPOCH": "2026-06-08T06:23:53.574720",
        "MEAN_MOTION": 2.00557619,
        "ECCENTRICITY": 0.0121153,
        "INCLINATION": 54.8525,
        "RA_OF_ASC_NODE": 215.5168,
        "ARG_OF_PERICENTER": 302.4224,
        "MEAN_ANOMALY": 20.4344,
        "EPHEMERIS_TYPE": 0,
        "CLASSIFICATION_TYPE": "U",
        "NORAD_CAT_ID": 26407,
        "ELEMENT_SET_NO": 999,
        "REV_AT_EPOCH": 18976,
        "BSTAR": 0,
        "MEAN_MOTION_DOT": 5.0e-7,
        "MEAN_MOTION_DDOT": 0
    },
    {
        "OBJECT_NAME": "GPS BIIR-8  (PRN 16)",
        "OBJECT_ID": "2003-005A",
        "EPOCH": "2026-06-07T16:12:29.890080",
        "MEAN_MOTION": 2.00561087,
        "ECCENTRICITY": 0.0147938,
        "INCLINATION": 54.8836,
        "RA_OF_ASC_NODE": 215.347,
        "ARG_OF_PERICENTER": 53.0681,
        "MEAN_ANOMALY": 338.7742,
        "EPHEMERIS_TYPE": 0,
        "CLASSIFICATION_TYPE": "U",
        "NORAD_CAT_ID": 27663,
        "ELEMENT_SET_NO": 999,
        "REV_AT_EPOCH": 17112,
        "BSTAR": 0,
        "MEAN_MOTION_DOT": 4.6e-7,
        "MEAN_MOTION_DDOT": 0
    },
    {
        "OBJECT_NAME": "GPS BIIR-11 (PRN 19)",
        "OBJECT_ID": "2004-009A",
        "EPOCH": "2026-06-07T22:07:18.216768",
        "MEAN_MOTION": 2.00555033,
        "ECCENTRICITY": 0.01157645,
        "INCLINATION": 54.8377,
        "RA_OF_ASC_NODE": 276.0618,
        "ARG_OF_PERICENTER": 172.6979,
        "MEAN_ANOMALY": 190.397,
        "EPHEMERIS_TYPE": 0,
        "CLASSIFICATION_TYPE": "U",
        "NORAD_CAT_ID": 28190,
        "ELEMENT_SET_NO": 999,
        "REV_AT_EPOCH": 16276,
        "BSTAR": 0,
        "MEAN_MOTION_DOT": -3.8e-7,
        "MEAN_MOTION_DDOT": 0
    },
    {
        "OBJECT_NAME": "GPS BIIR-13 (PRN 02)",
        "OBJECT_ID": "2004-045A",
        "EPOCH": "2026-06-07T08:29:39.413760",
        "MEAN_MOTION": 2.00555497,
        "ECCENTRICITY": 0.01698355,
        "INCLINATION": 55.1426,
        "RA_OF_ASC_NODE": 325.2921,
        "ARG_OF_PERICENTER": 316.1621,
        "MEAN_ANOMALY": 61.9097,
        "EPHEMERIS_TYPE": 0,
        "CLASSIFICATION_TYPE": "U",
        "NORAD_CAT_ID": 28474,
        "ELEMENT_SET_NO": 999,
        "REV_AT_EPOCH": 15823,
        "BSTAR": 0,
        "MEAN_MOTION_DOT": -5.9e-7,
        "MEAN_MOTION_DDOT": 0
    },
    {
        "OBJECT_NAME": "GPS BIIRM-1 (PRN 17)",
        "OBJECT_ID": "2005-038A",
        "EPOCH": "2026-06-07T09:41:47.868000",
        "MEAN_MOTION": 2.00566372,
        "ECCENTRICITY": 0.01278055,
        "INCLINATION": 54.8864,
        "RA_OF_ASC_NODE": 273.5725,
        "ARG_OF_PERICENTER": 296.0848,
        "MEAN_ANOMALY": 81.4655,
        "EPHEMERIS_TYPE": 0,
        "CLASSIFICATION_TYPE": "U",
        "NORAD_CAT_ID": 28874,
        "ELEMENT_SET_NO": 999,
        "REV_AT_EPOCH": 15164,
        "BSTAR": 0,
        "MEAN_MOTION_DOT": -3.5e-7,
        "MEAN_MOTION_DDOT": 0
    },
    {
        "OBJECT_NAME": "GPS BIIRM-2 (PRN 31)",
        "OBJECT_ID": "2006-042A",
        "EPOCH": "2026-06-06T06:33:10.642176",
        "MEAN_MOTION": 2.00570539,
        "ECCENTRICITY": 0.01063665,
        "INCLINATION": 54.7093,
        "RA_OF_ASC_NODE": 151.7723,
        "ARG_OF_PERICENTER": 54.1524,
        "MEAN_ANOMALY": 125.0487,
        "EPHEMERIS_TYPE": 0,
        "CLASSIFICATION_TYPE": "U",
        "NORAD_CAT_ID": 29486,
        "ELEMENT_SET_NO": 999,
        "REV_AT_EPOCH": 14417,
        "BSTAR": 0,
        "MEAN_MOTION_DOT": 9.2e-7,
        "MEAN_MOTION_DDOT": 0
    },
    {
        "OBJECT_NAME": "GPS BIIRM-3 (PRN 12)",
        "OBJECT_ID": "2006-052A",
        "EPOCH": "2026-06-06T22:45:05.171328",
        "MEAN_MOTION": 2.00557676,
        "ECCENTRICITY": 0.00853288,
        "INCLINATION": 54.936,
        "RA_OF_ASC_NODE": 214.4122,
        "ARG_OF_PERICENTER": 90.7654,
        "MEAN_ANOMALY": 270.2902,
        "EPHEMERIS_TYPE": 0,
        "CLASSIFICATION_TYPE": "U",
        "NORAD_CAT_ID": 29601,
        "ELEMENT_SET_NO": 999,
        "REV_AT_EPOCH": 14320,
        "BSTAR": 0,
        "MEAN_MOTION_DOT": 4.3e-7,
        "MEAN_MOTION_DDOT": 0
    },
    {
        "OBJECT_NAME": "GPS BIIRM-4 (PRN 15)",
        "OBJECT_ID": "2007-047A",
        "EPOCH": "2026-06-07T06:04:06.810240",
        "MEAN_MOTION": 2.00555752,
        "ECCENTRICITY": 0.0166381,
        "INCLINATION": 54.0881,
        "RA_OF_ASC_NODE": 80.4752,
        "ARG_OF_PERICENTER": 87.1871,
        "MEAN_ANOMALY": 274.7184,
        "EPHEMERIS_TYPE": 0,
        "CLASSIFICATION_TYPE": "U",
        "NORAD_CAT_ID": 32260,
        "ELEMENT_SET_NO": 999,
        "REV_AT_EPOCH": 13661,
        "BSTAR": 0,
        "MEAN_MOTION_DOT": -1.0e-7,
        "MEAN_MOTION_DDOT": 0
    },
    {
        "OBJECT_NAME": "GPS BIIRM-5 (PRN 29)",
        "OBJECT_ID": "2007-062A",
        "EPOCH": "2026-06-07T13:19:54.461280",
        "MEAN_MOTION": 2.00559526,
        "ECCENTRICITY": 0.00355613,
        "INCLINATION": 55.0397,
        "RA_OF_ASC_NODE": 274.5401,
        "ARG_OF_PERICENTER": 165.0044,
        "MEAN_ANOMALY": 180.7176,
        "EPHEMERIS_TYPE": 0,
        "CLASSIFICATION_TYPE": "U",
        "NORAD_CAT_ID": 32384,
        "ELEMENT_SET_NO": 999,
        "REV_AT_EPOCH": 13531,
        "BSTAR": 0,
        "MEAN_MOTION_DOT": -3.6e-7,
        "MEAN_MOTION_DDOT": 0
    },
    {
        "OBJECT_NAME": "GPS BIIRM-6 (PRN 07)",
        "OBJECT_ID": "2008-012A",
        "EPOCH": "2026-06-08T03:53:32.066880",
        "MEAN_MOTION": 2.00572197,
        "ECCENTRICITY": 0.02110854,
        "INCLINATION": 54.4962,
        "RA_OF_ASC_NODE": 150.2852,
        "ARG_OF_PERICENTER": 247.7327,
        "MEAN_ANOMALY": 110.0225,
        "EPHEMERIS_TYPE": 0,
        "CLASSIFICATION_TYPE": "U",
        "NORAD_CAT_ID": 32711,
        "ELEMENT_SET_NO": 999,
        "REV_AT_EPOCH": 13357,
        "BSTAR": 0,
        "MEAN_MOTION_DOT": 1.08e-6,
        "MEAN_MOTION_DDOT": 0
    },
    {
        "OBJECT_NAME": "GPS BIIRM-8 (PRN 05)",
        "OBJECT_ID": "2009-043A",
        "EPOCH": "2026-06-08T07:17:15.461952",
        "MEAN_MOTION": 2.00554745,
        "ECCENTRICITY": 0.00537143,
        "INCLINATION": 56.2048,
        "RA_OF_ASC_NODE": 27.8007,
        "ARG_OF_PERICENTER": 82.8286,
        "MEAN_ANOMALY": 29.7907,
        "EPHEMERIS_TYPE": 0,
        "CLASSIFICATION_TYPE": "U",
        "NORAD_CAT_ID": 35752,
        "ELEMENT_SET_NO": 999,
        "REV_AT_EPOCH": 12318,
        "BSTAR": 0,
        "MEAN_MOTION_DOT": -6.7e-7,
        "MEAN_MOTION_DDOT": 0
    },
    {
        "OBJECT_NAME": "GPS BIIF-1  (PRN 25)",
        "OBJECT_ID": "2010-022A",
        "EPOCH": "2026-06-06T14:14:54.747744",
        "MEAN_MOTION": 2.00561927,
        "ECCENTRICITY": 0.012632,
        "INCLINATION": 54.2711,
        "RA_OF_ASC_NODE": 208.9891,
        "ARG_OF_PERICENTER": 66.1226,
        "MEAN_ANOMALY": 10.1575,
        "EPHEMERIS_TYPE": 0,
        "CLASSIFICATION_TYPE": "U",
        "NORAD_CAT_ID": 36585,
        "ELEMENT_SET_NO": 999,
        "REV_AT_EPOCH": 11738,
        "BSTAR": 0,
        "MEAN_MOTION_DOT": 4.8e-7,
        "MEAN_MOTION_DDOT": 0
    }
]